STARLINK-1825
1 16722C 20073BE  21326.12951122  .00004197  00000-0  28118-3 0  3268
2 16722  53.0541  98.1528 0001239  81.3533  43.6791 15.06399239    10
